satname,norad_id,inclination_deg,eccentricity,mean_motion_rev_per_day,perigee_km,apogee_km,l1,l2
STARLINK-1277,45369,53.0537,0.0001362,15.06395128,546.2832554494935,548.1697244641573,1 45369U 20019K   25290.83249539  .00000125  00000+0  27298-4 0  9999,2 45369  53.0537  88.5563 0001362  88.8117 271.3028 15.06395128308196
STARLINK-1281,45370,53.0543,0.0001278,15.06404018,546.3141854024434,548.0843013462509,1 45370U 20019L   25290.82872509  .00001841  00000+0  14243-3 0  9990,2 45370  53.0543  87.9461 0001278  91.0655 269.0480 15.06404018308201
STARLINK-1300,45374,53.0541,0.0001318,15.06398978,546.3019288700807,548.1274515756231,1 45374U 20019Q   25290.85084951 -.00000075  00000+0  13847-4 0  9992,2 45374  53.0541  87.8440 0001318  90.0139 270.1001 15.06398978308209
STARLINK-1302,45375,53.0538,0.0001317,15.06403313,546.2893370212269,548.1134711568648,1 45375U 20019R   25290.79923763  .00001123  00000+0  94251-4 0  9991,2 45375  53.0538  88.0781 0001317  83.7639 276.3500 15.06403313308190
STARLINK-1304,45376,53.0521,0.0001222,15.06411348,546.3305048273332,548.0230515147177,1 45376U 20019S   25290.81767002  .00005074  00000+0  35917-3 0  9999,2 45376  53.0521  87.9941 0001222  85.6593 274.4536 15.06411348308199
STARLINK-1305,45377,53.0542,9.79e-05,15.17721431,512.0542606260788,513.4034921646771,1 45377U 20019T   25290.91668980  .01889219  00000+0  83791-1 0  9999,2 45377  53.0542  87.3306 0000979  92.8523  58.4862 15.17721431  5839
STARLINK-1319,45379,53.0543,0.0001369,15.06396878,546.2730449076435,548.1692079626619,1 45379U 20019V   25290.83610544  .00001028  00000+0  87876-4 0  9999,2 45379  53.0543  87.9143 0001369  89.9321 270.1825 15.06396878308204
STARLINK-1266,45383,53.056,0.0001365,15.06401632,546.2612467024373,548.1518654932515,1 45383U 20019Z   25290.77159065  .00001564  00000+0  12388-3 0  9993,2 45383  53.0560  68.2050 0001365 102.0576 258.0566 15.06401632308462
STARLINK-1267,45384,53.0546,0.000115,15.06399015,546.4181613917217,548.0109922543916,1 45384U 20019AA  25290.69058443  .00000958  00000+0  83162-4 0  9998,2 45384  53.0546  69.2230 0001150  80.3305 279.7814 15.06399015308443
STARLINK-1272,45386,53.0542,0.0001177,15.15071383,519.9498554697702,521.573856260442,1 45386U 20019AC  25290.91668980  .01832844  00000+0  87890-1 0  9995,2 45386  53.0542  67.4190 0001177  89.6051  87.0518 15.15071383  5838
STARLINK-1274,45387,53.0361,0.0005643,15.27637733,479.00455834812146,486.7478978773697,1 45387U 20019AD  25290.85637384  .00132739  00000+0  47731-2 0  9999,2 45387  53.0361  55.2003 0005643 175.5038 184.6012 15.27637733308657
STARLINK-1280,45388,53.0552,0.0001442,15.17686739,511.8402077705723,513.8275637740298,1 45388U 20019AE  25290.91668980  .01841142  00000+0  81954-1 0  9993,2 45388  53.0552  87.2848 0001442  65.9027 231.0658 15.17686739  5831
STARLINK-1283,45389,53.0518,8.25e-05,15.28204479,480.613924411643,481.7457116866217,1 45389U 20019AF  25290.91668980  .00049566  00000+0  17801-2 0  9994,2 45389  53.0518  66.1943 0000825  76.3719 170.4125 15.28204479  5681
STARLINK-1284,45390,53.0537,0.0001783,15.06438223,545.8596436645767,548.3291811862473,1 45390U 20019AG  25290.64257005  .00010050  00000+0  69189-3 0  9991,2 45390  53.0537  68.7816 0001783  95.1348 264.9844 15.06438223308441
STARLINK-1292,45394,53.0489,0.0007494,15.85859394,308.89096803831035,318.92100206430405,1 45394U 20019AL  25290.91668980  .00277177  00000+0  10759-2 0  9996,2 45394  53.0489  25.8835 0007494 318.6574 232.7890 15.85859394  6021
STARLINK-1297,45395,53.0537,0.0001786,15.06410215,545.9433889504626,548.4171122723801,1 45395U 20019AM  25290.67945753  .00005719  00000+0  40240-3 0  9996,2 45395  53.0537  68.6146 0001786  93.3218 266.7975 15.06410215307636
STARLINK-1307,45397,53.0544,0.0001202,15.06410506,546.3469357222348,548.0117817748778,1 45397U 20019AP  25290.67206259  .00002378  00000+0  17844-3 0  9991,2 45397  53.0544  68.6472 0001202  85.5486 274.5640 15.06410506308271
STARLINK-1312,45398,53.0461,0.0003983,15.87446493,306.78119223755493,312.1085199441177,1 45398U 20019AQ  25290.91668980  .00399884  00000+0  14172-2 0  9993,2 45398  53.0461  25.3975 0003983 299.3947  65.5324 15.87446493  5974
STARLINK-1255,45399,53.053,0.000116,15.2169162,499.93990769218,501.5358066590452,1 45399U 20019AR  25290.91668980  .01665465  00000+0  66659-1 0  9992,2 45399  53.0530  57.1521 0001160  64.6153 204.9180 15.21691620  5835
STARLINK-1259,45403,53.0452,0.0003618,16.03953874,261.0785475244684,265.8844226602814,1 45403U 20019AV  25290.68030889  .00587581  17340-3  89161-3 0  9998,2 45403  53.0452   5.8920 0003618  21.6239 338.4944 16.03953874309139
STARLINK-1260,45404,53.0536,0.0001932,15.06407151,545.8516681328238,548.5276143469982,1 45404U 20019AW  25290.73933272  .00001958  00000+0  15030-3 0  9997,2 45404  53.0536  58.3447 0001932  87.8677 272.2533 15.06407151308319
STARLINK-1263,45405,53.0473,0.0002134,15.06442639,545.6030371315392,548.558720122137,1 45405U 20019AX  25290.65822875 -.00006273  00000+0 -40208-3 0  9997,2 45405  53.0473  58.7090 0002134  94.7728 265.3505 15.06442639308308
STARLINK-1265,45406,53.0521,0.000175,15.06405748,545.9820082874467,548.4058741168683,1 45406U 20019AY  25290.73196750  .00001314  00000+0  10707-3 0  9993,2 45406  53.0521  58.3806 0001750  96.4814 263.6374 15.06405748308318
STARLINK-1278,45408,53.0533,0.0001086,15.15768427,517.8976763167193,519.3956577291965,1 45408U 20019BA  25290.91668980  .01866495  00000+0  87605-1 0  9993,2 45408  53.0533  87.3974 0001086  69.5944 148.3035 15.15768427  5793
STARLINK-1296,45412,53.0552,0.0001304,15.06402049,546.3022134224466,548.1083426885634,1 45412U 20019BE  25290.73565264  .00000933  00000+0  81482-4 0  9995,2 45412  53.0552  58.3624 0001304  89.0122 271.1016 15.06402049308310
STARLINK-1298,45413,53.049,0.0007186,15.49293828,413.9063838984639,423.67492832582775,1 45413U 20019BF  25290.91668980  .00120303  00000+0  21372-2 0  9999,2 45413  53.0490  37.9710 0007186 237.7590 144.7276 15.49293828  5908
STARLINK-1309,45414,53.0525,0.0001622,15.06405218,546.0722766238359,548.3188545081048,1 45414U 20019BG  25290.75038743  .00001078  00000+0  91216-4 0  9993,2 45414  53.0525  58.2964 0001622 100.7811 259.3361 15.06405218308308
STARLINK-1316,45415,53.0559,0.0001452,15.06398784,546.2097236538948,548.2208459574022,1 45415U 20019BH  25290.64351130  .00000478  00000+0  50978-4 0  9993,2 45415  53.0559  58.7761 0001452  85.7219 274.3936 15.06398784308327
STARLINK-1318,45416,53.0526,0.0002909,15.58618338,389.6855882507789,393.6242531902535,1 45416U 20019BJ  25290.65322875  .00065781  00000+0  84166-3 0  9992,2 45416  53.0526  31.6136 0002909 350.7146   9.3811 15.58618338308695
STARLINK-1286,45417,53.054,0.0001376,15.11665933,530.1683877594496,532.0698150385542,1 45417U 20019BK  25290.91668980  .00128411  00000+0  73465-2 0  9991,2 45417  53.0540  87.4558 0001376  83.8985 161.5797 15.11665933  5680
STARLINK-1308,45419,53.0534,0.0001266,15.06405778,546.3171023715495,548.070596142581,1 45419U 20019BM  25290.81029161  .00002191  00000+0  16590-3 0  9997,2 45419  53.0534  88.0276 0001266  84.8825 275.2308 15.06405778307938
STARLINK-1329,45531,53.0556,0.0001439,15.06419176,546.1562376832426,548.1493360839077,1 45531U 20025A   25290.51355558  .00003002  00000+0  22022-3 0  9997,2 45531  53.0556  29.3594 0001439  86.5102 273.6052 15.06419176303512
STARLINK-1338,45532,53.0558,0.0001598,15.0641403,546.0618945144779,548.2752221709252,1 45532U 20025B   25290.65733602  .00009116  00000+0  62985-3 0  9997,2 45532  53.0558  28.7130 0001598  92.1410 267.9761 15.06414030303534
STARLINK-1350,45535,53.0752,0.0001013,15.31806295,469.7293945412948,471.11691282843185,1 45535U 20025E   25290.85081793  .00015794  00000+0  51791-3 0  9991,2 45535  53.0752 341.8544 0001013  67.1885 292.9223 15.31806295304236
STARLINK-1362,45538,53.0542,0.0001349,15.06427009,546.1945621262967,548.0629988338706,1 45538U 20025H   25290.68951676  .00012543  00000+0  85883-3 0  9999,2 45538  53.0542  28.2876 0001349  86.3745 273.7398 15.06427009303547
STARLINK-1368,45540,53.0557,0.0001269,15.06410097,546.3017894553668,548.0594350653582,1 45540U 20025K   25290.56148344  .00003186  00000+0  23263-3 0  9996,2 45540  53.0557  29.1448 0001269  90.4928 269.6206 15.06410097303519
STARLINK-1371,45542,53.0568,0.0001156,15.06401066,546.4077208881199,548.0088607193529,1 45542U 20025M   25290.66470088  .00001653  00000+0  12981-3 0  9994,2 45542  53.0568  28.6804 0001156  90.6320 269.4802 15.06401066303534
STARLINK-1372,45543,53.056,0.0001369,15.06429571,546.1728607544246,548.0689963752648,1 45543U 20025N   25290.56885318 -.00000626  00000+0 -23093-4 0  9998,2 45543  53.0560  29.1124 0001369  91.3104 268.8042 15.06429571302610
STARLINK-1373,45544,53.0538,0.0001345,15.06412909,546.2405399353565,548.1034480547405,1 45544U 20025P   25290.65364456  .00003814  00000+0  27474-3 0  9990,2 45544  53.0538  28.7310 0001345  98.5378 261.5763 15.06412909303533
STARLINK-1294,45551,53.0507,0.0007623,15.57234631,390.50093301052766,400.82827093289507,1 45551U 20025W   25290.83476054  .00088242  00000+0  11824-2 0  9995,2 45551  53.0507 326.1064 0007623   4.9078 355.2006 15.57234631304432
STARLINK-1323,45553,53.0222,0.0001382,16.2488098,205.42274296955202,207.24269039924366,1 45553U 20025Y   25290.93407676  .03162619  11950-4  10720-2 0  9991,2 45553  53.0222 299.2673 0001382  97.6004 262.5193 16.24880980303512
STARLINK-1325,45554,53.0585,0.0001683,15.54890183,401.33069615053137,403.6130490970563,1 45554U 20025Z   25290.91668980  .00387759  00000+0  54369-2 0  9994,2 45554  53.0585 318.5607 0001683  82.7716 233.1475 15.54890183  5947
STARLINK-1327,45555,53.0557,0.0001439,15.06415136,546.1686176846142,548.1617196487568,1 45555U 20025AA  25290.49330274  .00001922  00000+0  14785-3 0  9994,2 45555  53.0557   9.4518 0001439  86.7844 273.3310 15.06415136303784
